OBJECT_NAME,OBJECT_ID,EPOCH,MEAN_MOTION,ECCENTRICITY,INCLINATION,RA_OF_ASC_NODE,ARG_OF_PERICENTER,MEAN_ANOMALY,EPHEMERIS_TYPE,CLASSIFICATION_TYPE,NORAD_CAT_ID,ELEMENT_SET_NO,REV_AT_EPOCH,BSTAR,MEAN_MOTION_DOT,MEAN_MOTION_DDOT
H-2A R/B,2006-002B,2026-06-13T21:22:27.389856,15.18024282,.00495729,98.2554,320.4217,273.8434,85.7130,0,U,28932,999,10902,.32826434E-3,.6813E-4,0
RESURS-DK 1,2006-021A,2026-06-13T22:17:02.273856,15.13205683,.00068032,69.9339,347.9881,294.2410,65.8045,0,U,29228,999,10208,.15165032E-3,.2592E-4,0
CZ-4B R/B,2006-046C,2026-06-13T16:37:33.773664,15.17760414,.00310875,97.5456,209.3104,295.5237,64.2782,0,U,29507,999,7460,.19610761E-3,.3937E-4,0
CZ-2C R/B,2007-010B,2026-06-13T21:21:14.031072,14.20275550,.00592254,98.4095,273.4020,15.6953,344.6043,0,U,31114,999,99337,.50448787E-4,.69E-6,0
COSMO-SKYMED 1,2007-023A,2026-06-13T22:14:36.288096,14.97085323,.00010643,97.8841,356.7556,95.9631,264.1712,0,U,31598,999,2930,.22800452E-3,.2569E-4,0
COSMOS 2428,2007-029A,2026-06-13T21:17:23.165088,14.12928672,.00071632,70.9370,1.4070,141.2964,218.8672,0,U,31792,999,97768,-.4357314E-4,-.129E-5,0
SL-16 R/B,2007-029B,2026-06-13T22:31:30.815904,14.14853660,.00022616,70.9767,330.0576,261.2305,213.7558,0,U,31793,999,97898,.14419109E-3,.231E-5,0
KORONAS-FOTON,2009-003A,2026-06-13T20:11:53.075328,15.45665122,.00113156,82.4281,175.7493,158.4804,201.6922,0,U,33504,999,96058,.27037986E-3,.13109E-3,0
CZ-2C R/B,2011-030B,2026-06-13T20:45:51.145056,14.81464151,.00532988,97.8654,120.3113,38.6003,15.5015,0,U,37731,999,80433,.15885416E-3,.122E-4,0
H-2A R/B,2012-025E,2026-06-13T22:41:58.422048,14.95702531,.0043857,98.4823,139.8242,359.9530,0.1677,0,U,38341,999,76260,.31206464E-3,.3471E-4,0
SHIJIAN-16 (SJ-16),2013-057A,2026-06-13T22:55:16.843584,14.92599239,.00168405,74.9733,2.8059,238.3555,121.5991,0,U,39358,999,68586,.45217425E-4,.437E-5,0
SL-4 R/B,2014-021B,2026-06-13T21:18:51.895296,15.41894600,.00913693,51.6050,226.9341,93.9448,267.1989,0,U,39679,999,67110,.21672162E-3,.10424E-3,0
ALOS-2,2014-029A,2026-06-13T23:03:00.571392,14.79478021,.00016033,97.9217,262.1697,90.4590,269.6805,0,U,39766,999,65110,.19860643E-3,.1432E-4,0
YAOGAN-29,2015-069A,2026-06-13T22:32:39.148800,14.83081359,.00027602,98.0032,193.5668,59.4092,300.7393,0,U,41038,999,57014,-.6834194E-5,-.11E-5,0
ASTRO-H (HITOMI),2016-012A,2026-06-13T12:46:03.181728,15.10496033,.00097397,30.9989,97.7930,217.5160,142.4799,0,U,41337,999,56673,.14179782E-3,.2491E-4,0
HXMT (HUIYAN),2017-034A,2026-06-13T23:26:49.881408,15.18461473,.00302844,43.0127,200.9170,126.1186,234.2472,0,U,42758,999,49717,.19018714E-3,.3792E-4,0
SAOCOM 1A,2018-076A,2026-06-13T23:06:45.301248,14.82149076,.00016307,97.8882,351.7593,78.0822,282.0574,0,U,43641,999,41562,.13046571E-3,.986E-5,0
H-2A R/B,2018-084L,2026-06-13T15:08:49.047936,15.45028112,.002382,98.8590,42.7447,52.4165,307.9238,0,U,43682,999,42057,.44948E-3,.21353E-3,0
SAOCOM 1B,2020-059A,2026-06-13T22:14:30.859584,14.82167753,.00014751,97.8884,350.8180,82.3699,277.7681,0,U,46265,999,31300,.45867852E-4,.313E-5,0
CSS (TIANHE),2021-035A,2026-06-13T21:44:02.182848,15.60676113,.00077895,41.4695,341.9716,50.3492,309.8033,0,U,48274,999,29265,.28411739E-3,.24016E-3,0
COSMOS 2550,2021-056A,2026-06-14T00:35:19.468032,15.33827229,.0008416,67.1406,109.4720,268.2428,91.7762,0,U,48865,999,27823,.10961E-5,-.156E-5,0
CZ-2C R/B,2022-058K,2026-06-13T12:44:49.894656,15.61605462,.0032703,50.1836,182.5390,252.8586,106.8805,0,U,52794,999,22507,.39469E-3,.35189E-3,0
CZ-2C R/B,2022-132E,2026-06-13T14:04:04.389888,15.71113849,.0016488,97.2895,171.4506,95.2167,265.0978,0,U,54039,999,20538,.43279E-3,.54947E-3,0
GSLV R/B,2022-138AN,2026-06-13T21:49:59.458080,14.97242510,.00223947,87.3797,134.0846,154.7258,205.5075,0,U,54149,999,19832,.22506252E-3,.2646E-4,0
XRISM,2023-137A,2026-06-13T21:22:52.243680,15.12439115,.00079758,31.0031,20.9529,290.9953,68.9833,0,U,57800,999,15236,.26714615E-3,.486E-4,0
ACS3,2024-077B,2026-06-13T18:14:20.200992,13.93840151,.00664537,97.1680,84.3102,66.7378,294.0766,0,U,59588,999,10756,.31444499E-2,.4195E-4,0
CZ-8A R/B,2025-231K,2026-06-13T21:47:06.252864,14.30154115,.01164728,50.0054,53.2684,212.4566,146.9149,0,U,66004,999,3447,.38923334E-4,-.54E-6,0
SZ-21 MODULE,2025-246C,2026-06-13T17:32:52.137600,15.76117488,.00067511,41.4731,328.8460,328.3391,31.7047,0,U,66515,999,3319,.28446481E-3,.45764E-3,0
