H-2A R/B                
1 28932U 06002B   26164.89059479  .00006813  00000+0  32826-3 0  9993
2 28932  98.2554 320.4217 0049572 273.8434  85.7130 15.18024282109025
RESURS-DK 1             
1 29228U 06021A   26164.92849854  .00002592  00000+0  15165-3 0  9998
2 29228  69.9339 347.9881 0006803 294.2410  65.8045 15.13205683102086
CZ-4B R/B               
1 29507U 06046C   26164.69275201  .00003937  00000+0  19611-3 0  9992
2 29507  97.5456 209.3104 0031087 295.5237  64.2782 15.17760414 74604
CZ-2C R/B               
1 31114U 07010B   26164.88974573  .00000069  00000+0  50449-4 0  9998
2 31114  98.4095 273.4020 0059225  15.6953 344.6043 14.20275550993373
COSMO-SKYMED 1          
1 31598U 07023A   26164.92680889  .00002569  00000+0  22800-3 0  9993
2 31598  97.8841 356.7556 0001064  95.9631 264.1712 14.97085323 29305
COSMOS 2428             
1 31792U 07029A   26164.88707367 -.00000129  00000+0 -43573-4 0  9994
2 31792  70.9370   1.4070 0007163 141.2964 218.8672 14.12928672977689
SL-16 R/B               
1 31793U 07029B   26164.93855111  .00000231  00000+0  14419-3 0  9990
2 31793  70.9767 330.0576 0002261 261.2305 213.7558 14.14853660978985
KORONAS-FOTON           
1 33504U 09003A   26164.84158652  .00013109  00000+0  27038-3 0  9991
2 33504  82.4281 175.7493 0011315 158.4804 201.6922 15.45665122960586
CZ-2C R/B               
1 37731U 11030B   26164.86517529  .00001220  00000+0  15885-3 0  9992
2 37731  97.8654 120.3113 0053298  38.6003  15.5015 14.81464151804330
H-2A R/B                
1 38341U 12025E   26164.94581507  .00003471  00000+0  31206-3 0  9996
2 38341  98.4823 139.8242 0043857 359.9530   0.1677 14.95702531762604
SHIJIAN-16 (SJ-16)      
1 39358U 13057A   26164.95505606  .00000437  00000+0  45217-4 0  9995
2 39358  74.9733   2.8059 0016840 238.3555 121.5991 14.92599239685861
SL-4 R/B                
1 39679U 14021B   26164.88810064  .00010424  00000+0  21672-3 0  9997
2 39679  51.6050 226.9341 0091369  93.9448 267.1989 15.41894600671100
ALOS-2                  
1 39766U 14029A   26164.96042328  .00001432  00000+0  19861-3 0  9997
2 39766  97.9217 262.1697 0001603  90.4590 269.6805 14.79478021651100
YAOGAN-29               
1 41038U 15069A   26164.93934200 -.00000110  00000+0 -68342-5 0  9997
2 41038  98.0032 193.5668 0002760  59.4092 300.7393 14.83081359570146
ASTRO-H (HITOMI)        
1 41337U 16012A   26164.53198127  .00002491  00000+0  14180-3 0  9995
2 41337  30.9989  97.7930 0009739 217.5160 142.4799 15.10496033566738
HXMT (HUIYAN)           
1 42758U 17034A   26164.97696622  .00003792  00000+0  19019-3 0  9990
2 42758  43.0127 200.9170 0030284 126.1186 234.2472 15.18461473497178
SAOCOM 1A               
1 43641U 18076A   26164.96302432  .00000986  00000+0  13047-3 0  9998
2 43641  97.8882 351.7593 0001630  78.0822 282.0574 14.82149076415620
H-2A R/B                
1 43682U 18084L   26164.63112324  .00021353  00000+0  44948-3 0  9990
2 43682  98.8590  42.7447 0023820  52.4165 307.9238 15.45028112420579
SAOCOM 1B               
1 46265U 20059A   26164.92674606  .00000313  00000+0  45868-4 0  9999
2 46265  97.8884 350.8180 0001475  82.3699 277.7681 14.82167753313007
CSS (TIANHE)            
1 48274U 21035A   26164.90558082  .00024016  00000+0  28412-3 0  9994
2 48274  41.4695 341.9716 0007789  50.3492 309.8033 15.60676113292657
COSMOS 2550             
1 48865U 21056A   26165.02453088 -.00000156  00000+0  10961-5 0  9999
2 48865  67.1406 109.4720 0008416 268.2428  91.7762 15.33827229278237
CZ-2C R/B               
1 52794U 22058K   26164.53113304  .00035189  00000+0  39469-3 0  9992
2 52794  50.1836 182.5390 0032703 252.8586 106.8805 15.61605462225071
CZ-2C R/B               
1 54039U 22132E   26164.58616192  .00054947  00000+0  43279-3 0  9994
2 54039  97.2895 171.4506 0016488  95.2167 265.0978 15.71113849205389
GSLV R/B                
1 54149U 22138AN  26164.90971595  .00002646  00000+0  22506-3 0  9998
2 54149  87.3797 134.0846 0022394 154.7258 205.5075 14.97242510198326
XRISM                   
1 57800U 23137A   26164.89088245  .00004860  00000+0  26715-3 0  9990
2 57800  31.0031  20.9529 0007975 290.9953  68.9833 15.12439115152368
ACS3                    
1 59588U 24077B   26164.75995603  .00004195  00000+0  31444-2 0  9994
2 59588  97.1680  84.3102 0066453  66.7378 294.0766 13.93840151107565
CZ-8A R/B               
1 66004U 25231K   26164.90771126 -.00000054  00000+0  38923-4 0  9999
2 66004  50.0054  53.2684 0116472 212.4566 146.9149 14.30154115 34474
SZ-21 MODULE            
1 66515U 25246C   26164.73115900  .00045764  00000+0  28446-3 0  9999
2 66515  41.4731 328.8460 0006751 328.3391  31.7047 15.76117488 33190
